STARLINK-36709          
1 67969U 26038J   26068.91668981 -.01499810  00000+0 -64174-2 0  9993
2 67969  97.2719  79.2205 0001339  90.4470 197.8058 15.88038561  3230
STARLINK-36319          
1 67970U 26038K   26068.91668981 -.01498725  00000+0 -64606-2 0  9999
2 67970  97.2718  79.2180 0001330  89.0227 194.4732 15.87887532  3206
STARLINK-36710          
1 67971U 26038L   26068.91668981 -.01494550  00000+0 -63332-2 0  9997
2 67971  97.2714  79.2229 0001283  87.3138 206.7416 15.88221795  3239
STARLINK-36894          
1 67972U 26038M   26068.91668981 -.01498944  00000+0 -63063-2 0  9990
2 67972  97.2707  79.2246 0001244  88.2794 210.5373 15.88375110  3232
STARLINK-36900          
1 67973U 26038N   26068.91668981 -.01495422  00000+0 -61934-2 0  9994
2 67973  97.2706  79.2285 0001286  85.5458 222.8089 15.88679859  3235
STARLINK-36901          
1 67974U 26038P   26068.91668981 -.01497308  00000+0 -62523-2 0  9995
2 67974  97.2707  79.2262 0001333  87.3219 216.0113 15.88519870  3239
STARLINK-36883          
1 67975U 26038Q   26068.91668981 -.01488870  00000+0 -59727-2 0  9992
2 67975  97.2695  79.2367 0001250  86.7454 241.0035 15.89298230  3230
STARLINK-36880          
1 67976U 26038R   26068.91668981 -.01487936  00000+0 -61113-2 0  9997
2 67976  97.2703  79.2304 0001258  85.7125 227.5267 15.88829498  3235
STARLINK-36904          
1 67977U 26038S   26068.91668981 -.01489680  00000+0 -60238-2 0  9993
2 67977  97.2695  79.2340 0001251  86.7092 236.1745 15.89142307  3238
STARLINK-36364          
1 67978U 26038T   26068.91668981 -.01697783  78431-3 -58490-2 0  9993
2 67978  97.2685  79.2412 0001200  83.5151 255.6973 15.89670356  3232
STARLINK-36359          
1 67979U 26038U   26068.91668981 -.01494736  00000+0 -61013-2 0  9995
2 67979  97.2699  79.2315 0001269  85.9390 231.3554 15.88966835  3231
STARLINK-36882          
1 67980U 26038V   26068.91668981 -.01702778  78728-3 -59172-2 0  9994
2 67980  97.2688  79.2388 0001247  87.6092 246.1602 15.89497833  3231
