CCSDS_OMM_VERS = 2.0
CREATION_DATE  = 
ORIGINATOR     = 

OBJECT_NAME    = STARLINK-36709
OBJECT_ID      = 2026-038J
CENTER_NAME    = EARTH
REF_FRAME      = TEME
TIME_SYSTEM    = UTC
MEAN_ELEMENT_THEORY = SGP/SGP4

EPOCH          = 2026-03-09T22:00:01.999584
MEAN_MOTION    = 15.88038561
ECCENTRICITY   = .00013395
INCLINATION    = 97.2719
RA_OF_ASC_NODE = 79.2205
ARG_OF_PERICENTER = 90.4470
MEAN_ANOMALY   = 197.8058

EPHEMERIS_TYPE = 0
CLASSIFICATION_TYPE = U
NORAD_CAT_ID   = 67969
ELEMENT_SET_NO = 999
REV_AT_EPOCH   = 323
BSTAR          = -.64173652E-2
MEAN_MOTION_DOT = -.149981E-1
MEAN_MOTION_DDOT = 0

CCSDS_OMM_VERS = 2.0
CREATION_DATE  = 
ORIGINATOR     = 

OBJECT_NAME    = STARLINK-36319
OBJECT_ID      = 2026-038K
CENTER_NAME    = EARTH
REF_FRAME      = TEME
TIME_SYSTEM    = UTC
MEAN_ELEMENT_THEORY = SGP/SGP4

EPOCH          = 2026-03-09T22:00:01.999584
MEAN_MOTION    = 15.87887532
ECCENTRICITY   = .00013308
INCLINATION    = 97.2718
RA_OF_ASC_NODE = 79.2180
ARG_OF_PERICENTER = 89.0227
MEAN_ANOMALY   = 194.4732

EPHEMERIS_TYPE = 0
CLASSIFICATION_TYPE = U
NORAD_CAT_ID   = 67970
ELEMENT_SET_NO = 999
REV_AT_EPOCH   = 320
BSTAR          = -.64605593E-2
MEAN_MOTION_DOT = -.1498725E-1
MEAN_MOTION_DDOT = 0

CCSDS_OMM_VERS = 2.0
CREATION_DATE  = 
ORIGINATOR     = 

OBJECT_NAME    = STARLINK-36710
OBJECT_ID      = 2026-038L
CENTER_NAME    = EARTH
REF_FRAME      = TEME
TIME_SYSTEM    = UTC
MEAN_ELEMENT_THEORY = SGP/SGP4

EPOCH          = 2026-03-09T22:00:01.999584
MEAN_MOTION    = 15.88221795
ECCENTRICITY   = .00012833
INCLINATION    = 97.2714
RA_OF_ASC_NODE = 79.2229
ARG_OF_PERICENTER = 87.3138
MEAN_ANOMALY   = 206.7416

EPHEMERIS_TYPE = 0
CLASSIFICATION_TYPE = U
NORAD_CAT_ID   = 67971
ELEMENT_SET_NO = 999
REV_AT_EPOCH   = 323
BSTAR          = -.63331814E-2
MEAN_MOTION_DOT = -.149455E-1
MEAN_MOTION_DDOT = 0

CCSDS_OMM_VERS = 2.0
CREATION_DATE  = 
ORIGINATOR     = 

OBJECT_NAME    = STARLINK-36894
OBJECT_ID      = 2026-038M
CENTER_NAME    = EARTH
REF_FRAME      = TEME
TIME_SYSTEM    = UTC
MEAN_ELEMENT_THEORY = SGP/SGP4

EPOCH          = 2026-03-09T22:00:01.999584
MEAN_MOTION    = 15.88375110
ECCENTRICITY   = .00012448
INCLINATION    = 97.2707
RA_OF_ASC_NODE = 79.2246
ARG_OF_PERICENTER = 88.2794
MEAN_ANOMALY   = 210.5373

EPHEMERIS_TYPE = 0
CLASSIFICATION_TYPE = U
NORAD_CAT_ID   = 67972
ELEMENT_SET_NO = 999
REV_AT_EPOCH   = 323
BSTAR          = -.63063208E-2
MEAN_MOTION_DOT = -.1498944E-1
MEAN_MOTION_DDOT = 0

CCSDS_OMM_VERS = 2.0
CREATION_DATE  = 
ORIGINATOR     = 

OBJECT_NAME    = STARLINK-36900
OBJECT_ID      = 2026-038N
CENTER_NAME    = EARTH
REF_FRAME      = TEME
TIME_SYSTEM    = UTC
MEAN_ELEMENT_THEORY = SGP/SGP4

EPOCH          = 2026-03-09T22:00:01.999584
MEAN_MOTION    = 15.88679859
ECCENTRICITY   = .00012865
INCLINATION    = 97.2706
RA_OF_ASC_NODE = 79.2285
ARG_OF_PERICENTER = 85.5458
MEAN_ANOMALY   = 222.8089

EPHEMERIS_TYPE = 0
CLASSIFICATION_TYPE = U
NORAD_CAT_ID   = 67973
ELEMENT_SET_NO = 999
REV_AT_EPOCH   = 323
BSTAR          = -.61933865E-2
MEAN_MOTION_DOT = -.1495422E-1
MEAN_MOTION_DDOT = 0

CCSDS_OMM_VERS = 2.0
CREATION_DATE  = 
ORIGINATOR     = 

OBJECT_NAME    = STARLINK-36901
OBJECT_ID      = 2026-038P
CENTER_NAME    = EARTH
REF_FRAME      = TEME
TIME_SYSTEM    = UTC
MEAN_ELEMENT_THEORY = SGP/SGP4

EPOCH          = 2026-03-09T22:00:01.999584
MEAN_MOTION    = 15.88519870
ECCENTRICITY   = .00013331
INCLINATION    = 97.2707
RA_OF_ASC_NODE = 79.2262
ARG_OF_PERICENTER = 87.3219
MEAN_ANOMALY   = 216.0113

EPHEMERIS_TYPE = 0
CLASSIFICATION_TYPE = U
NORAD_CAT_ID   = 67974
ELEMENT_SET_NO = 999
REV_AT_EPOCH   = 323
BSTAR          = -.62523415E-2
MEAN_MOTION_DOT = -.1497308E-1
MEAN_MOTION_DDOT = 0

CCSDS_OMM_VERS = 2.0
CREATION_DATE  = 
ORIGINATOR     = 

OBJECT_NAME    = STARLINK-36883
OBJECT_ID      = 2026-038Q
CENTER_NAME    = EARTH
REF_FRAME      = TEME
TIME_SYSTEM    = UTC
MEAN_ELEMENT_THEORY = SGP/SGP4

EPOCH          = 2026-03-09T22:00:01.999584
MEAN_MOTION    = 15.89298230
ECCENTRICITY   = .00012506
INCLINATION    = 97.2695
RA_OF_ASC_NODE = 79.2367
ARG_OF_PERICENTER = 86.7454
MEAN_ANOMALY   = 241.0035

EPHEMERIS_TYPE = 0
CLASSIFICATION_TYPE = U
NORAD_CAT_ID   = 67975
ELEMENT_SET_NO = 999
REV_AT_EPOCH   = 323
BSTAR          = -.59726656E-2
MEAN_MOTION_DOT = -.148887E-1
MEAN_MOTION_DDOT = 0

CCSDS_OMM_VERS = 2.0
CREATION_DATE  = 
ORIGINATOR     = 

OBJECT_NAME    = STARLINK-36880
OBJECT_ID      = 2026-038R
CENTER_NAME    = EARTH
REF_FRAME      = TEME
TIME_SYSTEM    = UTC
MEAN_ELEMENT_THEORY = SGP/SGP4

EPOCH          = 2026-03-09T22:00:01.999584
MEAN_MOTION    = 15.88829498
ECCENTRICITY   = .00012589
INCLINATION    = 97.2703
RA_OF_ASC_NODE = 79.2304
ARG_OF_PERICENTER = 85.7125
MEAN_ANOMALY   = 227.5267

EPHEMERIS_TYPE = 0
CLASSIFICATION_TYPE = U
NORAD_CAT_ID   = 67976
ELEMENT_SET_NO = 999
REV_AT_EPOCH   = 323
BSTAR          = -.61113448E-2
MEAN_MOTION_DOT = -.1487936E-1
MEAN_MOTION_DDOT = 0

CCSDS_OMM_VERS = 2.0
CREATION_DATE  = 
ORIGINATOR     = 

OBJECT_NAME    = STARLINK-36904
OBJECT_ID      = 2026-038S
CENTER_NAME    = EARTH
REF_FRAME      = TEME
TIME_SYSTEM    = UTC
MEAN_ELEMENT_THEORY = SGP/SGP4

EPOCH          = 2026-03-09T22:00:01.999584
MEAN_MOTION    = 15.89142307
ECCENTRICITY   = .00012516
INCLINATION    = 97.2695
RA_OF_ASC_NODE = 79.2340
ARG_OF_PERICENTER = 86.7092
MEAN_ANOMALY   = 236.1745

EPHEMERIS_TYPE = 0
CLASSIFICATION_TYPE = U
NORAD_CAT_ID   = 67977
ELEMENT_SET_NO = 999
REV_AT_EPOCH   = 323
BSTAR          = -.60237844E-2
MEAN_MOTION_DOT = -.148968E-1
MEAN_MOTION_DDOT = 0

CCSDS_OMM_VERS = 2.0
CREATION_DATE  = 
ORIGINATOR     = 

OBJECT_NAME    = STARLINK-36364
OBJECT_ID      = 2026-038T
CENTER_NAME    = EARTH
REF_FRAME      = TEME
TIME_SYSTEM    = UTC
MEAN_ELEMENT_THEORY = SGP/SGP4

EPOCH          = 2026-03-09T22:00:01.999584
MEAN_MOTION    = 15.89670356
ECCENTRICITY   = .00012006
INCLINATION    = 97.2685
RA_OF_ASC_NODE = 79.2412
ARG_OF_PERICENTER = 83.5151
MEAN_ANOMALY   = 255.6973

EPHEMERIS_TYPE = 0
CLASSIFICATION_TYPE = U
NORAD_CAT_ID   = 67978
ELEMENT_SET_NO = 999
REV_AT_EPOCH   = 323
BSTAR          = -.58490234E-2
MEAN_MOTION_DOT = -.1697783E-1
MEAN_MOTION_DDOT = .78431293E-3

CCSDS_OMM_VERS = 2.0
CREATION_DATE  = 
ORIGINATOR     = 

OBJECT_NAME    = STARLINK-36359
OBJECT_ID      = 2026-038U
CENTER_NAME    = EARTH
REF_FRAME      = TEME
TIME_SYSTEM    = UTC
MEAN_ELEMENT_THEORY = SGP/SGP4

EPOCH          = 2026-03-09T22:00:01.999584
MEAN_MOTION    = 15.88966835
ECCENTRICITY   = .0001269
INCLINATION    = 97.2699
RA_OF_ASC_NODE = 79.2315
ARG_OF_PERICENTER = 85.9390
MEAN_ANOMALY   = 231.3554

EPHEMERIS_TYPE = 0
CLASSIFICATION_TYPE = U
NORAD_CAT_ID   = 67979
ELEMENT_SET_NO = 999
REV_AT_EPOCH   = 323
BSTAR          = -.61012697E-2
MEAN_MOTION_DOT = -.1494736E-1
MEAN_MOTION_DDOT = 0

CCSDS_OMM_VERS = 2.0
CREATION_DATE  = 
ORIGINATOR     = 

OBJECT_NAME    = STARLINK-36882
OBJECT_ID      = 2026-038V
CENTER_NAME    = EARTH
REF_FRAME      = TEME
TIME_SYSTEM    = UTC
MEAN_ELEMENT_THEORY = SGP/SGP4

EPOCH          = 2026-03-09T22:00:01.999584
MEAN_MOTION    = 15.89497833
ECCENTRICITY   = .00012472
INCLINATION    = 97.2688
RA_OF_ASC_NODE = 79.2388
ARG_OF_PERICENTER = 87.6092
MEAN_ANOMALY   = 246.1602

EPHEMERIS_TYPE = 0
CLASSIFICATION_TYPE = U
NORAD_CAT_ID   = 67980
ELEMENT_SET_NO = 999
REV_AT_EPOCH   = 323
BSTAR          = -.59171783E-2
MEAN_MOTION_DOT = -.1702778E-1
MEAN_MOTION_DDOT = .78727847E-3

